STARLINK-1828
1 26725C 20073BH  21325.16479297  .00003006  00000-0  20136-3 0  3251
2 26725  53.0540 102.4812 0001393  81.0831  49.3431 15.06405559    13
